STARLINK-2040
1 17656C 21012AN  21326.14097292  .00008183  00000-0  54839-3 0  3268
2 17656  53.0539 253.1000 0001805  64.2501  30.5567 15.06382355    13
